CSS (TIANHE)            
1 48274U 21035A   24067.16277123  .00039796  00000+0  42324-3 0  9995
2 48274  41.4695 346.6120 0006796 127.1865 232.9596 15.63232462163129
